[{"OBJECT_NAME":"STARLINK-5351","OBJECT_ID":"2023-065J","EPOCH":"2026-03-09T22:00:01.999584","MEAN_MOTION":15.06704104,"ECCENTRICITY":9.505e-5,"INCLINATION":43.001,"RA_OF_ASC_NODE":209.1507,"ARG_OF_PERICENTER":288.5874,"MEAN_ANOMALY":241.0448,"EPHEMERIS_TYPE":0,"CLASSIFICATION_TYPE":"U","NORAD_CAT_ID":56511,"ELEMENT_SET_NO":999,"REV_AT_EPOCH":572,"BSTAR":0.0045262887,"MEAN_MOTION_DOT":0.0006883,"MEAN_MOTION_DDOT":0},{"OBJECT_NAME":"KUIPER-00164","OBJECT_ID":"2025-301B","EPOCH":"2026-03-09T22:00:01.999584","MEAN_MOTION":15.08488187,"ECCENTRICITY":0.00045568,"INCLINATION":51.8847,"RA_OF_ASC_NODE":66.2292,"ARG_OF_PERICENTER":84.8156,"MEAN_ANOMALY":198.9561,"EPHEMERIS_TYPE":0,"CLASSIFICATION_TYPE":"U","NORAD_CAT_ID":67134,"ELEMENT_SET_NO":999,"REV_AT_EPOCH":541,"BSTAR":0.00024752424,"MEAN_MOTION_DOT":3.618e-5,"MEAN_MOTION_DDOT":0}]
